{
  "type": "Feature",
  "properties": { "state_id": "western-han", "as_of": -202, "note": "汉初帝国：尚未取河西、岭南（后由汉武帝拓边），南界止于南岭；近似边界，参照海岸线与山川绘制。" },
  "geometry": {
    "type": "Polygon",
    "coordinates": [[
      [103.5, 35.5], [105.0, 37.0], [107.0, 38.5], [109.5, 40.0],
      [112.0, 40.8], [115.0, 40.8], [117.5, 40.5], [119.6, 39.9],
      [117.7, 39.1], [119.0, 37.8], [121.4, 37.6], [122.1, 37.4],
      [121.0, 36.0], [119.5, 35.0], [120.3, 34.3], [121.5, 31.4],
      [121.0, 30.4], [121.7, 29.5], [120.7, 27.5], [119.3, 26.1],
      [117.0, 25.0], [114.5, 25.0], [112.0, 25.2], [110.5, 25.0],
      [109.0, 26.0], [107.0, 27.5], [105.0, 28.5], [103.5, 30.0],
      [102.8, 32.0], [103.0, 34.0], [103.5, 35.5]
    ]]
  }
}
