{
  "type": "Feature",
  "properties": { "state_id": "qin", "as_of": -221, "note": "统一后的秦帝国，含岭南、河套、巴蜀；近似边界，参照现代海岸线与主要山川绘制。" },
  "geometry": {
    "type": "Polygon",
    "coordinates": [[
      [103.5, 35.5], [105.0, 37.0], [107.0, 38.5], [109.5, 40.0],
      [112.0, 40.8], [115.0, 40.8], [117.5, 40.5], [119.6, 39.9],
      [117.7, 39.1], [119.0, 37.8], [121.4, 37.6], [122.1, 37.4],
      [121.0, 36.0], [119.5, 35.0], [120.3, 34.3], [121.5, 31.4],
      [121.0, 30.4], [121.7, 29.5], [120.7, 27.5], [119.3, 26.1],
      [118.1, 24.5], [116.7, 23.4], [114.1, 22.5], [113.5, 22.1],
      [111.0, 21.4], [110.4, 21.1], [108.5, 21.8], [106.5, 22.5],
      [105.0, 23.5], [104.0, 25.0], [103.0, 27.0], [102.5, 29.0],
      [102.5, 31.0], [103.0, 33.0], [103.5, 35.5]
    ]]
  }
}
